0 SL-8 DEB
1 21166U 91009AD  13284.03678318 -.00000124  00000-0 -10515-2 0  1332
2 21166 074.0606 274.5548 0121774 037.0084 019.1417 12.19134386  6007
0 SL-8 DEB
1 21166U 91009AD  13286.44207425 -.00000041  00000-0 -25547-3 0  1347
2 21166 074.0609 271.5440 0121788 033.5818 135.6918 12.19133378  6290
0 SL-8 DEB
1 21166U 91009AD  13289.12802080  .00000108  00000-0  11627-2 0  1359
2 21166 074.0614 268.1819 0121851 029.7546 044.0035 12.19132051  6621
0 SL-8 DEB
1 21166U 91009AD  13291.36156444 -.00000021  00000-0 -68937-4 0  1369
2 21166 074.0619 265.3863 0121930 026.5806 126.7450 12.19133553  6892
0 SL-8 DEB
1 21166U 91009AD  13293.41639576 -.00000103  00000-0 -85288-3 0  1378
2 21166 074.0621 262.8146 0121982 023.6625 145.1463 12.19134319  7144
0 SL-8 DEB
1 21166U 91009AD  13296.01825552  .00000070  00000-0  80436-3 0  1380
2 21166 074.0623 259.5583 0122047 019.9740 044.3988 12.19132671  7469
